0 IRIDIUM 33 DEB
1 38034U 97051YW  13282.31847576  .00015736  00000-0  36018-2 0  2228
2 38034 086.3591 111.5231 0025955 045.0299 074.1534 14.55349526205578
0 IRIDIUM 33 DEB
1 38034U 97051YW  13283.28192394  .00013498  00000-0  30888-2 0  2240
2 38034 086.3591 111.1022 0025863 041.9204 081.8011 14.55368163205710
0 IRIDIUM 33 DEB
1 38034U 97051YW  13283.80840572  .00010331  00000-0  23718-2 0  2232
2 38034 086.3597 110.8705 0026005 040.0191 320.3417 14.55375523205791
0 IRIDIUM 33 DEB
1 38034U 97051YW  13285.27607758  .00010584  00000-0  24202-2 0  2253
2 38034 086.3588 110.2308 0025696 035.4507 089.7118 14.55406185206006
0 IRIDIUM 33 DEB
1 38034U 97051YW  13286.30599660  .00010415  00000-0  23804-2 0  2261
2 38034 086.3582 109.7804 0025607 032.1715 085.7844 14.55425665206153
0 IRIDIUM 33 DEB
1 38034U 97051YW  13287.80781373  .00016193  00000-0  36982-2 0  2272
2 38034 086.3576 109.1238 0025515 027.1245 034.6781 14.55459460206367
0 IRIDIUM 33 DEB
1 38034U 97051YW  13289.26361347  .00015802  00000-0  36060-2 0  2283
2 38034 086.3574 108.4876 0025423 022.1448 102.7648 14.55501209206585
0 IRIDIUM 33 DEB
1 38034U 97051YW  13290.76273325  .00017242  00000-0  39310-2 0  2290
2 38034 086.3576 107.8320 0025345 017.0931 037.9643 14.55538388206792
0 IRIDIUM 33 DEB
1 38034U 97051YW  13292.28746652  .00013876  00000-0  31619-2 0  2302
2 38034 086.3580 107.1655 0025220 011.8724 107.6683 14.55575026207021
0 IRIDIUM 33 DEB
1 38034U 97051YW  13293.78781486  .00015793  00000-0  35959-2 0  2314
2 38034 086.3584 106.5098 0025066 006.8122 049.7152 14.55609519207238
0 IRIDIUM 33 DEB
1 38034U 97051YW  13294.82074315  .00018798  00000-0  42769-2 0  2322
2 38034 086.3587 106.0583 0024997 003.3012 062.5499 14.55635913207387
